[{"OBJECT_NAME":"LEMUR-2-PETERG","OBJECT_ID":"2017-042S","EPOCH":"2026-03-09T11:34:35.656032","MEAN_MOTION":15.29611459,"ECCENTRICITY":0.00037,"INCLINATION":97.398,"RA_OF_ASC_NODE":253.6596,"ARG_OF_PERICENTER":341.6938,"MEAN_ANOMALY":18.4169,"EPHEMERIS_TYPE":0,"CLASSIFICATION_TYPE":"U","NORAD_CAT_ID":42841,"ELEMENT_SET_NO":999,"REV_AT_EPOCH":47317,"BSTAR":0.00081076471,"MEAN_MOTION_DOT":0.0002324,"MEAN_MOTION_DDOT":0},{"OBJECT_NAME":"STARLINK-34295","OBJECT_ID":"2025-130T","EPOCH":"2026-03-09T07:40:00.163776","MEAN_MOTION":15.30204072,"ECCENTRICITY":9.471e-5,"INCLINATION":53.1599,"RA_OF_ASC_NODE":90.4461,"ARG_OF_PERICENTER":66.4686,"MEAN_ANOMALY":293.6414,"EPHEMERIS_TYPE":0,"CLASSIFICATION_TYPE":"U","NORAD_CAT_ID":64455,"ELEMENT_SET_NO":999,"REV_AT_EPOCH":4064,"BSTAR":0.00063794647,"MEAN_MOTION_DOT":0.00018585,"MEAN_MOTION_DDOT":0}]
